{
"type": "FeatureCollection",
"name": "convexhull",
"features": [
{ "type": "Feature", "properties": { }, "geometry": { "type": "Polygon", "coordinates": [ [ [ 375143.263262422289699, 6169405.015554339624941 ], [ 375143.110089854802936, 6169405.019467197358608 ], [ 375142.957316848973278, 6169405.031195563264191 ], [ 375142.805341924133245, 6169405.050708843395114 ], [ 375142.654561517760158, 6169405.077956135384738 ], [ 375142.505368951358832, 6169405.112866363488138 ], [ 375142.358153404493351, 6169405.155348461121321 ], [ 375142.213298899412621, 6169405.205291611142457 ], [ 375142.071183299529366, 6169405.26256553363055 ], [ 375139.6462622549152, 6169406.31258714850992 ], [ 375139.503539781435393, 6169406.378885667771101 ], [ 375139.364490266307257, 6169406.452577121555805 ], [ 375139.229496330604888, 6169406.533458734862506 ], [ 375041.200599885603879, 6169468.818610182031989 ], [ 375041.070824621419888, 6169468.905896238982677 ], [ 375040.945774632622488, 6169468.999826933257282 ], [ 375040.825789783964865, 6169469.100146976299584 ], [ 375040.711196173855569, 6169469.206583715975285 ], [ 375040.6023052483215, 6169469.318847874179482 ], [ 375040.499412954435684, 6169469.43663433752954 ], [ 375040.402798936062027, 6169469.55962298065424 ], [ 375040.312725773896091, 6169469.687479542568326 ], [ 375026.585833025281318, 6169490.293065126053989 ], [ 375026.495921598630957, 6169490.436660980805755 ], [ 375026.414259751618374, 6169490.585103484801948 ], [ 375026.341107929416467, 6169490.737919206731021 ], [ 375026.276699436246417, 6169490.894620770588517 ], [ 375026.221239691076335, 6169491.054708405397832 ], [ 375026.174905572552234, 6169491.217671541497111 ], [ 375009.929104133159854, 6169555.16892949771136 ], [ 375009.927652329206467, 6169555.174668213352561 ], [ 374985.932202179683372, 6169650.419403028674424 ], [ 374985.929124564863741, 6169650.431729065254331 ], [ 374984.607824019738473, 6169655.7717016460374 ], [ 374984.576306770730298, 6169655.913771744817495 ], [ 374984.551716113870498, 6169656.057203086093068 ], [ 374984.534109911590349, 6169656.201658170670271 ], [ 374984.523529591679107, 6169656.346797093749046 ], [ 374984.520000050019007, 6169656.492278337478638 ], [ 374984.520000050019007, 6169662.005379741080105 ], [ 374984.524827941844705, 6169662.175509228371084 ], [ 374984.539296078379266, 6169662.345091138035059 ], [ 374984.563357892504428, 6169662.513579654507339 ], [ 374984.596935938927345, 6169662.680432481691241 ], [ 374986.278131963743363, 6169669.960224814713001 ], [ 374986.314397648966406, 6169670.101502183824778 ], [ 374986.357487242959905, 6169670.240849886089563 ], [ 374986.407298889069352, 6169670.377938524819911 ], [ 374986.463714840938337, 6169670.512444046325982 ], [ 374986.52660174050834, 6169670.644048502668738 ], [ 375008.121853449556511, 6169713.148677087388933 ], [ 375008.198371569393203, 6169713.289800653234124 ], [ 375010.83202565292595, 6169717.851423357613385 ], [ 375010.906230190536007, 6169717.973172960802913 ], [ 375010.986135671846569, 6169718.091259342618287 ], [ 375011.071561605553143, 6169718.205415766686201 ], [ 375011.162315030931495, 6169718.3153843767941 ], [ 375013.505774767254479, 6169721.021378591656685 ], [ 375013.602170450962149, 6169721.127456336282194 ], [ 375013.703522845578846, 6169721.228808730840683 ], [ 375013.809600590146147, 6169721.325204415246844 ], [ 375015.233446435129736, 6169722.558291089721024 ], [ 375015.361502025567461, 6169722.663150724023581 ], [ 375015.495145658322144, 6169722.760788608342409 ], [ 375060.49118264997378, 6169753.767354439012706 ], [ 375060.627679383673239, 6169753.856050306931138 ], [ 375060.768786132335663, 6169753.937211879529059 ], [ 375060.914087441575248, 6169754.010600195266306 ], [ 375061.063155506970361, 6169754.075999180786312 ], [ 375061.215551433735527, 6169754.133216283284128 ], [ 375061.370826529106125, 6169754.18208304233849 ], [ 375061.528523623244837, 6169754.222455580718815 ], [ 375061.688178415293805, 6169754.254215030930936 ], [ 375061.849320840556175, 6169754.277267886325717 ], [ 375067.359163744957186, 6169754.913489741273224 ], [ 375067.527540006965864, 6169754.928139659576118 ], [ 375067.696474075200967, 6169754.933284201659262 ], [ 375067.865429768164176, 6169754.928907039575279 ], [ 375130.92372831562534, 6169751.515776515007019 ], [ 375131.067941127053928, 6169751.504478164948523 ], [ 375131.21144166297745, 6169751.486241281963885 ], [ 375131.353896284766961, 6169751.461108267307281 ], [ 375152.030853574688081, 6169747.296743082813919 ], [ 375152.162290480919182, 6169747.267185905016959 ], [ 375152.292267887387425, 6169747.231757655739784 ], [ 375152.4205236833659, 6169747.190529778599739 ], [ 375154.270801583246794, 6169746.54957471601665 ], [ 375154.403173464001156, 6169746.500199091620743 ], [ 375154.533073925820645, 6169746.444646079093218 ], [ 375180.916778375860304, 6169734.418878545053303 ], [ 375181.052960820496082, 6169734.352604825049639 ], [ 375181.185625016572885, 6169734.279542692005634 ], [ 375181.314432849234436, 6169734.199878356419504 ], [ 375181.439056032220833, 6169734.113814854063094 ], [ 375181.559176944487263, 6169734.0215715309605 ], [ 375181.674489439697936, 6169733.923383483663201 ], [ 375181.784699626383372, 6169733.819500959478319 ], [ 375181.889526617247611, 6169733.710188717581332 ], [ 375181.988703244831413, 6169733.595725358463824 ], [ 375182.081976742425468, 6169733.476402607746422 ], [ 375182.169109388370998, 6169733.352524577639997 ], [ 375182.249879112001508, 6169733.224406992085278 ], [ 375182.324080059188418, 6169733.092376375570893 ], [ 375192.1838294895133, 6169714.462281507439911 ], [ 375192.24271817097906, 6169714.344862745143473 ], [ 375192.296410317532718, 6169714.224978651851416 ], [ 375192.344802989333402, 6169714.102859072387218 ], [ 375219.201485062949359, 6169641.742866794578731 ], [ 375219.20742564171087, 6169641.726719291880727 ], [ 375243.019905735447537, 6169576.42304577678442 ], [ 375243.075392459752038, 6169576.255766782909632 ], [ 375243.120960513362661, 6169576.085518167354167 ], [ 375243.156452630530111, 6169575.912887497805059 ], [ 375269.292714362149127, 6169426.69175195414573 ], [ 375269.316132491338067, 6169426.533249999396503 ], [ 375269.331055042915978, 6169426.373723839409649 ], [ 375269.337439452297986, 6169426.213628499768674 ], [ 375269.335267508868128, 6169426.053420632146299 ], [ 375269.324545407667756, 6169425.893557205796242 ], [ 375269.305303732224274, 6169425.734494211152196 ], [ 375269.277597366657574, 6169425.576685353182256 ], [ 375269.241505339625292, 6169425.420580760575831 ], [ 375269.197130598826334, 6169425.266625699587166 ], [ 375269.144599717110395, 6169425.115259307436645 ], [ 375269.084062531706877, 6169424.966913335025311 ], [ 375269.015691716747824, 6169424.822010919451714 ], [ 375268.939682290656492, 6169424.68096537515521 ], [ 375268.856251060031354, 6169424.544179015792906 ], [ 375268.765636001131497, 6169424.41204200591892 ], [ 375268.668095581058878, 6169424.284931248053908 ], [ 375268.563908020732924, 6169424.163209307938814 ], [ 375268.453370500879828, 6169424.047223381698132 ], [ 375268.336798314936459, 6169423.937304303050041 ], [ 375268.21452396910172, 6169423.833765601739287 ], [ 375268.086896234424785, 6169423.736902607604861 ], [ 375267.954279151686933, 6169423.646991608664393 ], [ 375267.817050993093289, 6169423.564289064146578 ], [ 375267.675603183219209, 6169423.489030872471631 ], [ 375236.288725559366867, 6169407.850167834199965 ], [ 375236.15063872380415, 6169407.785689324140549 ], [ 375236.009455632127356, 6169407.728306513279676 ], [ 375235.865540622384287, 6169407.678167482838035 ], [ 375235.719265082443599, 6169407.635401622392237 ], [ 375235.571006491838489, 6169407.600119293667376 ], [ 375235.421147447545081, 6169407.572411546483636 ], [ 375235.27007467666408, 6169407.552349884063005 ], [ 375235.118178038566839, 6169407.539986076764762 ], [ 375205.472249190264847, 6169405.883590751327574 ], [ 375205.352557494770736, 6169405.879297748208046 ], [ 375151.019996983814053, 6169405.015933023765683 ], [ 375150.972331878263503, 6169405.015554339624941 ], [ 375143.263262422289699, 6169405.015554339624941 ] ] ] } }
]
}
