{"type": "FeatureCollection", "features": [{"type": "Feature", "properties": {"filename": "DJI_0309.JPG", "camera": "v2 dji fc3411 2048 1365 brown 0.6111", "focal": 0.5950301138801529, "width": 2048, "height": 1365, "capture_time": 1772208292.0, "translation": [375090.7966290167, 6169522.550019662, 65.26347357422297], "rotation": [0.05179564649894444, -3.1239701604870755, 0.017511174830313652]}, "geometry": {"type": "Point", "coordinates": [-58.36234094594267, -34.60854797329931, 65.26347357422297]}}, {"type": "Feature", "properties": {"filename": "DJI_0348.JPG", "camera": "v2 dji fc3411 2048 1365 brown 0.6111", "focal": 0.5950301138801529, "width": 2048, "height": 1365, "capture_time": 1772208464.0, "translation": [375166.2193973009, 6169504.792026586, 66.7201635852141], "rotation": [3.1074454221057772, -0.01139025384135456, -0.017702012697629988]}, "geometry": {"type": "Point", "coordinates": [-58.36152115541928, -34.60871725173876, 66.7201635852141]}}, {"type": "Feature", "properties": {"filename": "DJI_0315.JPG", "camera": "v2 dji fc3411 2048 1365 brown 0.6111", "focal": 0.5950301138801529, "width": 2048, "height": 1365, "capture_time": 1772208326.0, "translation": [375115.37306282786, 6169525.648767168, 66.47653494863054], "rotation": [3.1079907371589726, 0.011530760188368655, 0.00225737389037904]}, "geometry": {"type": "Point", "coordinates": [-58.36207251002888, -34.608523029135114, 66.47653494863054]}}, {"type": "Feature", "properties": {"filename": "DJI_0304.JPG", "camera": "v2 dji fc3411 2048 1365 brown 0.6111", "focal": 0.5950301138801529, "width": 2048, "height": 1365, "capture_time": 1772208275.0, "translation": [375089.53782702744, 6169605.217761858, 65.27360306314033], "rotation": [0.04863560110869473, -3.123150103765278, 0.04656010965108606]}, "geometry": {"type": "Point", "coordinates": [-58.36234249640715, -34.60780253175868, 65.27360306314033]}}, {"type": "Feature", "properties": {"filename": "DJI_0339.JPG", "camera": "v2 dji fc3411 2048 1365 brown 0.6111", "focal": 0.5950301138801529, "width": 2048, "height": 1365, "capture_time": 1772208419.0, "translation": [375140.8255944968, 6169535.473197259, 66.29437345466042], "rotation": [0.05263375350289034, -3.134659625863057, 0.02389507971854943]}, "geometry": {"type": "Point", "coordinates": [-58.36179353117841, -34.60843755584387, 66.29437345466042]}}, {"type": "Feature", "properties": {"filename": "DJI_0350.JPG", "camera": "v2 dji fc3411 2048 1365 brown 0.6111", "focal": 0.5950301138801529, "width": 2048, "height": 1365, "capture_time": 1772208472.0, "translation": [375166.2101956314, 6169544.062153504, 66.99688166146072], "rotation": [3.120751855879145, -0.014204225542811465, -0.023211628331211726]}, "geometry": {"type": "Point", "coordinates": [-58.36151547544119, -34.60836321200915, 66.99688166146072]}}, {"type": "Feature", "properties": {"filename": "DJI_0287.JPG", "camera": "v2 dji fc3411 2048 1365 brown 0.6111", "focal": 0.5950301138801529, "width": 2048, "height": 1365, "capture_time": 1772208202.0, "translation": [375064.6062957153, 6169551.220128214, 66.35466171647435], "rotation": [3.1174090182712053, -0.049381354777487854, 0.009087218419881254]}, "geometry": {"type": "Point", "coordinates": [-58.36262229988647, -34.608286309288175, 66.35466171647435]}}, {"type": "Feature", "properties": {"filename": "DJI_0329.JPG", "camera": "v2 dji fc3411 2048 1365 brown 0.6111", "focal": 0.5950301138801529, "width": 2048, "height": 1365, "capture_time": 1772208385.0, "translation": [375138.01387666905, 6169702.673190764, 65.31097196274311], "rotation": [0.03732182264376518, -3.133505553806566, 0.05535243080318845]}, "geometry": {"type": "Point", "coordinates": [-58.3617995746122, -34.606929827205555, 65.31097196274311]}}, {"type": "Feature", "properties": {"filename": "DJI_0313.JPG", "camera": "v2 dji fc3411 2048 1365 brown 0.6111", "focal": 0.5950301138801529, "width": 2048, "height": 1365, "capture_time": 1772208319.0, "translation": [375115.9462809178, 6169493.315022269, 65.39038904122901], "rotation": [3.1047848574695904, 0.014376277015844355, 0.018098921493314987]}, "geometry": {"type": "Point", "coordinates": [-58.36207102097032, -34.60881460272469, 65.39038904122901]}}, {"type": "Feature", "properties": {"filename": "DJI_0284.JPG", "camera": "v2 dji fc3411 2048 1365 brown 0.6111", "focal": 0.5950301138801529, "width": 2048, "height": 1365, "capture_time": 1772208191.0, "translation": [375065.31160685525, 6169500.301744845, 64.80655299603443], "rotation": [3.126139363237005, -0.06451229616890058, 0.005430812123928425]}, "geometry": {"type": "Point", "coordinates": [-58.362622110160785, -34.60874544808978, 64.80655299603443]}}, {"type": "Feature", "properties": {"filename": "DJI_0326.JPG", "camera": "v2 dji fc3411 2048 1365 brown 0.6111", "focal": 0.5950301138801529, "width": 2048, "height": 1365, "capture_time": 1772208363.0, "translation": [375112.85724497563, 6169710.0335094165, 64.76040289161924], "rotation": [-3.133327393461665, 0.005526617081643464, 0.004896459218596924]}, "geometry": {"type": "Point", "coordinates": [-58.36207279159156, -34.60686040807331, 64.76040289161924]}}, {"type": "Feature", "properties": {"filename": "DJI_0292.JPG", "camera": "v2 dji fc3411 2048 1365 brown 0.6111", "focal": 0.5950301138801529, "width": 2048, "height": 1365, "capture_time": 1772208219.0, "translation": [375063.31659597997, 6169635.281951804, 66.07810915054385], "rotation": [3.1343529664990393, -0.04379331220593297, 0.010004444970797367]}, "geometry": {"type": "Point", "coordinates": [-58.36262397945485, -34.60752829571514, 66.07810915054385]}}, {"type": "Feature", "properties": {"filename": "DJI_0301.JPG", "camera": "v2 dji fc3411 2048 1365 brown 0.6111", "focal": 0.5950301138801529, "width": 2048, "height": 1365, "capture_time": 1772208265.0, "translation": [375088.7896134423, 6169655.712214179, 64.82237341216792], "rotation": [0.0438036820490803, -3.1202847591025384, 0.06786344076608718]}, "geometry": {"type": "Point", "coordinates": [-58.36234321808259, -34.60734720956458, 64.82237341216792]}}, {"type": "Feature", "properties": {"filename": "DJI_0285.JPG", "camera": "v2 dji fc3411 2048 1365 brown 0.6111", "focal": 0.5950301138801529, "width": 2048, "height": 1365, "capture_time": 1772208195.0, "translation": [375065.0645167971, 6169518.495845567, 65.5322637289411], "rotation": [3.1236074888320275, -0.05908347397387799, 0.01026337214798239]}, "geometry": {"type": "Point", "coordinates": [-58.36262212417695, -34.608581389722794, 65.5322637289411]}}, {"type": "Feature", "properties": {"filename": "DJI_0341.JPG", "camera": "v2 dji fc3411 2048 1365 brown 0.6111", "focal": 0.5950301138801529, "width": 2048, "height": 1365, "capture_time": 1772208426.0, "translation": [375141.5089059355, 6169501.389223706, 66.55093324368674], "rotation": [0.05521993433384713, -3.1364458781602456, 0.013321491537385446]}, "geometry": {"type": "Point", "coordinates": [-58.36179109835881, -34.60874492198797, 66.55093324368674]}}, {"type": "Feature", "properties": {"filename": "DJI_0330.JPG", "camera": "v2 dji fc3411 2048 1365 brown 0.6111", "focal": 0.5950301138801529, "width": 2048, "height": 1365, "capture_time": 1772208388.0, "translation": [375138.22181195754, 6169685.700345606, 65.78734472795834], "rotation": [0.039871711036452644, -3.132637851538558, 0.06652150364585306]}, "geometry": {"type": "Point", "coordinates": [-58.361799806010744, -34.60708287069483, 65.78734472795834]}}, {"type": "Feature", "properties": {"filename": "DJI_0296.JPG", "camera": "v2 dji fc3411 2048 1365 brown 0.6111", "focal": 0.5950301138801529, "width": 2048, "height": 1365, "capture_time": 1772208233.0, "translation": [375062.68324798177, 6169702.237362245, 65.25149131844546], "rotation": [-3.130668571878489, 0.03650658422837436, -0.015322181303051094]}, "geometry": {"type": "Point", "coordinates": [-58.362621022405904, -34.606924584299705, 65.25149131844546]}}, {"type": "Feature", "properties": {"filename": "DJI_0349.JPG", "camera": "v2 dji fc3411 2048 1365 brown 0.6111", "focal": 0.5950301138801529, "width": 2048, "height": 1365, "capture_time": 1772208467.0, "translation": [375166.2995515613, 6169521.731537894, 66.93256325275483], "rotation": [3.11365811061819, -0.012264272057262358, -0.020635601659556354]}, "geometry": {"type": "Point", "coordinates": [-58.361517788022375, -34.60856454385808, 66.93256325275483]}}, {"type": "Feature", "properties": {"filename": "DJI_0322.JPG", "camera": "v2 dji fc3411 2048 1365 brown 0.6111", "focal": 0.5950301138801529, "width": 2048, "height": 1365, "capture_time": 1772208350.0, "translation": [375113.6519413339, 6169643.090651657, 66.20464143782358], "rotation": [3.136857474352689, 0.0014347642640829966, -0.006215354639802306]}, "geometry": {"type": "Point", "coordinates": [-58.36207398349707, -34.60746402607719, 66.20464143782358]}}, {"type": "Feature", "properties": {"filename": "DJI_0333.JPG", "camera": "v2 dji fc3411 2048 1365 brown 0.6111", "focal": 0.5950301138801529, "width": 2048, "height": 1365, "capture_time": 1772208398.0, "translation": [375139.0395645647, 6169635.583905428, 66.13132015505764], "rotation": [0.05041049996313629, -3.1341442723998885, 0.056181094880206756]}, "geometry": {"type": "Point", "coordinates": [-58.36179826743065, -34.60753479348231, 66.13132015505764]}}, {"type": "Feature", "properties": {"filename": "DJI_0295.JPG", "camera": "v2 dji fc3411 2048 1365 brown 0.6111", "focal": 0.5950301138801529, "width": 2048, "height": 1365, "capture_time": 1772208229.0, "translation": [375063.0774143186, 6169685.254731804, 65.55501561110407], "rotation": [-3.132815232913097, 0.03636530340546383, -0.01898941972842023]}, "geometry": {"type": "Point", "coordinates": [-58.36261922613988, -34.607077738652954, 65.55501561110407]}}, {"type": "Feature", "properties": {"filename": "DJI_0347.JPG", "camera": "v2 dji fc3411 2048 1365 brown 0.6111", "focal": 0.5950301138801529, "width": 2048, "height": 1365, "capture_time": 1772208460.0, "translation": [375166.42195852543, 6169488.342460228, 66.67604728828421], "rotation": [3.1012676247145397, -0.007447250504755778, -0.01315052631137386]}, "geometry": {"type": "Point", "coordinates": [-58.36152136799892, -34.60886557693927, 66.67604728828421]}}, {"type": "Feature", "properties": {"filename": "DJI_0372.JPG", "camera": "v2 dji fc3411 2048 1365 brown 0.6111", "focal": 0.5950301138801529, "width": 2048, "height": 1365, "capture_time": 1772208644.0, "translation": [375038.8840824822, 6169681.407072525, 64.90660503424752], "rotation": [-3.1378091284965337, 0.0104048025274554, -0.02199751230680361]}, "geometry": {"type": "Point", "coordinates": [-58.36288359060553, -34.60710948018298, 64.90660503424752]}}, {"type": "Feature", "properties": {"filename": "DJI_0299.JPG", "camera": "v2 dji fc3411 2048 1365 brown 0.6111", "focal": 0.5950301138801529, "width": 2048, "height": 1365, "capture_time": 1772208258.0, "translation": [375088.29465604003, 6169689.362516121, 64.36665294846999], "rotation": [0.035409730603852045, -3.120328359858043, 0.07039169439379271]}, "geometry": {"type": "Point", "coordinates": [-58.362343659110785, -34.6070437760783, 64.36665294846999]}}, {"type": "Feature", "properties": {"filename": "DJI_0352.JPG", "camera": "v2 dji fc3411 2048 1365 brown 0.6111", "focal": 0.5950301138801529, "width": 2048, "height": 1365, "capture_time": 1772208477.0, "translation": [375165.6978655401, 6169571.66956908, 67.1517006115617], "rotation": [3.1237495869824894, -0.018741656122575726, -0.020782798088910148]}, "geometry": {"type": "Point", "coordinates": [-58.361516998247566, -34.60811425584826, 67.1517006115617]}}, {"type": "Feature", "properties": {"filename": "DJI_0323.JPG", "camera": "v2 dji fc3411 2048 1365 brown 0.6111", "focal": 0.5950301138801529, "width": 2048, "height": 1365, "capture_time": 1772208353.0, "translation": [375113.4776433236, 6169659.778120791, 66.15135739943784], "rotation": [3.138870311850447, 0.0001358961854004364, -0.005704321119524837]}, "geometry": {"type": "Point", "coordinates": [-58.36207342681791, -34.607313559503474, 66.15135739943784]}}, {"type": "Feature", "properties": {"filename": "DJI_0310.JPG", "camera": "v2 dji fc3411 2048 1365 brown 0.6111", "focal": 0.5950301138801529, "width": 2048, "height": 1365, "capture_time": 1772208296.0, "translation": [375091.01417632774, 6169505.365719673, 64.916694831704], "rotation": [0.05279458444134551, -3.1235860960795874, 0.012670387043421202]}, "geometry": {"type": "Point", "coordinates": [-58.36234110477652, -34.60870292425879, 64.916694831704]}}, {"type": "Feature", "properties": {"filename": "DJI_0340.JPG", "camera": "v2 dji fc3411 2048 1365 brown 0.6111", "focal": 0.5950301138801529, "width": 2048, "height": 1365, "capture_time": 1772208422.0, "translation": [375141.0878451062, 6169518.291830315, 66.34277198384423], "rotation": [0.05283423588075257, -3.135783430726751, 0.01994071205364232]}, "geometry": {"type": "Point", "coordinates": [-58.36179320111404, -34.608592485829526, 66.34277198384423]}}, {"type": "Feature", "properties": {"filename": "DJI_0361.JPG", "camera": "v2 dji fc3411 2048 1365 brown 0.6111", "focal": 0.5950301138801529, "width": 2048, "height": 1365, "capture_time": 1772208537.0, "translation": [375191.7049484627, 6169523.875991224, 65.62611924945887], "rotation": [-0.04010133175077476, 3.1368097229795895, -0.022794558307510156]}, "geometry": {"type": "Point", "coordinates": [-58.3612404537217, -34.60854830215358, 65.62611924945887]}}, {"type": "Feature", "properties": {"filename": "DJI_0360.JPG", "camera": "v2 dji fc3411 2048 1365 brown 0.6111", "focal": 0.5950301138801529, "width": 2048, "height": 1365, "capture_time": 1772208534.0, "translation": [375191.42861082003, 6169540.681032066, 65.64966817609093], "rotation": [-0.03934304876668628, 3.138486230101963, -0.0212702298911567]}, "geometry": {"type": "Point", "coordinates": [-58.36124099380086, -34.608396763186875, 65.64966817609093]}}, {"type": "Feature", "properties": {"filename": "DJI_0337.JPG", "camera": "v2 dji fc3411 2048 1365 brown 0.6111", "focal": 0.5950301138801529, "width": 2048, "height": 1365, "capture_time": 1772208412.0, "translation": [375140.2544077996, 6169568.507934442, 66.53919218697519], "rotation": [0.05330993408883346, -3.130679242153007, 0.03582646050645239]}, "geometry": {"type": "Point", "coordinates": [-58.36179489589507, -34.60813966269086, 66.53919218697519]}}, {"type": "Feature", "properties": {"filename": "DJI_0358.JPG", "camera": "v2 dji fc3411 2048 1365 brown 0.6111", "focal": 0.5950301138801529, "width": 2048, "height": 1365, "capture_time": 1772208499.0, "translation": [375164.2735996664, 6169671.098272409, 66.40859199549784], "rotation": [3.139443898590502, -0.01710983656898451, -0.015043138888196052]}, "geometry": {"type": "Point", "coordinates": [-58.36151789339187, -34.60721768600128, 66.40859199549784]}}, {"type": "Feature", "properties": {"filename": "DJI_0319.JPG", "camera": "v2 dji fc3411 2048 1365 brown 0.6111", "focal": 0.5950301138801529, "width": 2048, "height": 1365, "capture_time": 1772208339.0, "translation": [375114.3262567567, 6169593.114513584, 66.73212758596604], "rotation": [3.1301196441209362, 0.002927097226813939, -0.0037856497556212143]}, "geometry": {"type": "Point", "coordinates": [-58.36207398982438, -34.60791466645342, 66.73212758596604]}}, {"type": "Feature", "properties": {"filename": "DJI_0293.JPG", "camera": "v2 dji fc3411 2048 1365 brown 0.6111", "focal": 0.5950301138801529, "width": 2048, "height": 1365, "capture_time": 1772208222.0, "translation": [375063.36531582556, 6169651.961878051, 65.73216450655308], "rotation": [3.141074463871793, -0.040172783188095494, 0.013132016392646674]}, "geometry": {"type": "Point", "coordinates": [-58.362620991154344, -34.607377924334216, 65.73216450655308]}}, {"type": "Feature", "properties": {"filename": "DJI_0294.JPG", "camera": "v2 dji fc3411 2048 1365 brown 0.6111", "focal": 0.5950301138801529, "width": 2048, "height": 1365, "capture_time": 1772208226.0, "translation": [375063.3944610044, 6169668.682154203, 65.73585106089419], "rotation": [-3.136550313198656, 0.03630540039739749, -0.019400237696030522]}, "geometry": {"type": "Point", "coordinates": [-58.3626182103675, -34.607227186792024, 65.73585106089419]}}, {"type": "Feature", "properties": {"filename": "DJI_0290.JPG", "camera": "v2 dji fc3411 2048 1365 brown 0.6111", "focal": 0.5950301138801529, "width": 2048, "height": 1365, "capture_time": 1772208212.0, "translation": [375063.77895286266, 6169601.733292693, 66.27876432958284], "rotation": [3.127586941032871, -0.046554807212283486, 0.009460431476547853]}, "geometry": {"type": "Point", "coordinates": [-58.36262388000264, -34.607830808826876, 66.27876432958284]}}, {"type": "Feature", "properties": {"filename": "DJI_0314.JPG", "camera": "v2 dji fc3411 2048 1365 brown 0.6111", "focal": 0.5950301138801529, "width": 2048, "height": 1365, "capture_time": 1772208322.0, "translation": [375115.608410128, 6169509.473780689, 66.08467879695296], "rotation": [3.1037779074304264, 0.013810387786268264, 0.00690362217742537]}, "geometry": {"type": "Point", "coordinates": [-58.36207232564643, -34.60866888284217, 66.08467879695296]}}, {"type": "Feature", "properties": {"filename": "DJI_0362.JPG", "camera": "v2 dji fc3411 2048 1365 brown 0.6111", "focal": 0.5950301138801529, "width": 2048, "height": 1365, "capture_time": 1772208540.0, "translation": [375192.00387310184, 6169507.427924988, 64.8934578735276], "rotation": [-0.04037996114000644, 3.134006109389202, -0.02258732215755161]}, "geometry": {"type": "Point", "coordinates": [-58.361239614828634, -34.60869662557122, 64.8934578735276]}}, {"type": "Feature", "properties": {"filename": "DJI_0291.JPG", "camera": "v2 dji fc3411 2048 1365 brown 0.6111", "focal": 0.5950301138801529, "width": 2048, "height": 1365, "capture_time": 1772208215.0, "translation": [375063.3891914142, 6169618.384096872, 66.2317284871557], "rotation": [3.132337596217505, -0.045884218575549376, 0.009020516346241358]}, "geometry": {"type": "Point", "coordinates": [-58.36262567707948, -34.60768064659669, 66.2317284871557]}}, {"type": "Feature", "properties": {"filename": "DJI_0364.JPG", "camera": "v2 dji fc3411 2048 1365 brown 0.6111", "focal": 0.5950301138801529, "width": 2048, "height": 1365, "capture_time": 1772208547.0, "translation": [375192.3106077438, 6169474.062750829, 64.10599641432123], "rotation": [-0.04355243489092523, 3.1343950074267855, -0.007730095449200137]}, "geometry": {"type": "Point", "coordinates": [-58.361241180398444, -34.60899746560497, 64.10599641432123]}}, {"type": "Feature", "properties": {"filename": "DJI_0307.JPG", "camera": "v2 dji fc3411 2048 1365 brown 0.6111", "focal": 0.5950301138801529, "width": 2048, "height": 1365, "capture_time": 1772208285.0, "translation": [375090.32529722137, 6169555.515323601, 65.42860784177712], "rotation": [0.05186290908402948, -3.1235361725225297, 0.02723148393193446]}, "geometry": {"type": "Point", "coordinates": [-58.36234123011121, -34.608250718324214, 65.42860784177712]}}, {"type": "Feature", "properties": {"filename": "DJI_0335.JPG", "camera": "v2 dji fc3411 2048 1365 brown 0.6111", "focal": 0.5950301138801529, "width": 2048, "height": 1365, "capture_time": 1772208405.0, "translation": [375139.4121323512, 6169601.936573419, 66.50681576735805], "rotation": [0.05196782630266029, -3.1288306165924125, 0.04453576898949586]}, "geometry": {"type": "Point", "coordinates": [-58.361799158555435, -34.60783818531655, 66.50681576735805]}}, {"type": "Feature", "properties": {"filename": "DJI_0297.JPG", "camera": "v2 dji fc3411 2048 1365 brown 0.6111", "focal": 0.5950301138801529, "width": 2048, "height": 1365, "capture_time": 1772208250.0, "translation": [375088.3643250157, 6169724.690658266, 63.58802730071874], "rotation": [0.022538129337681626, -3.1171383535488393, 0.056465783378516606]}, "geometry": {"type": "Point", "coordinates": [-58.36233769656415, -34.60672528481588, 63.58802730071874]}}, {"type": "Feature", "properties": {"filename": "DJI_0321.JPG", "camera": "v2 dji fc3411 2048 1365 brown 0.6111", "focal": 0.5950301138801529, "width": 2048, "height": 1365, "capture_time": 1772208346.0, "translation": [375113.86187462666, 6169626.258253804, 66.30994680181782], "rotation": [3.1347274643907364, 0.002952295437598168, -0.0062310956035995695]}, "geometry": {"type": "Point", "coordinates": [-58.36207417296801, -34.607615803586036, 66.30994680181782]}}, {"type": "Feature", "properties": {"filename": "DJI_0359.JPG", "camera": "v2 dji fc3411 2048 1365 brown 0.6111", "focal": 0.5950301138801529, "width": 2048, "height": 1365, "capture_time": 1772208529.0, "translation": [375191.15504449717, 6169558.7110314425, 65.25088148260747], "rotation": [-0.04156237647041367, 3.141173258099692, -0.02532733654668252]}, "geometry": {"type": "Point", "coordinates": [-58.36124132340196, -34.6082341809763, 65.25088148260747]}}, {"type": "Feature", "properties": {"filename": "DJI_0370.JPG", "camera": "v2 dji fc3411 2048 1365 brown 0.6111", "focal": 0.5950301138801529, "width": 2048, "height": 1365, "capture_time": 1772208637.0, "translation": [375039.81009999104, 6169648.148339761, 65.40950099267157], "rotation": [-3.1407383013240437, 0.013831099215069257, -0.015739077205635926]}, "geometry": {"type": "Point", "coordinates": [-58.36287839367652, -34.60740943595482, 65.40950099267157]}}, {"type": "Feature", "properties": {"filename": "DJI_0345.JPG", "camera": "v2 dji fc3411 2048 1365 brown 0.6111", "focal": 0.5950301138801529, "width": 2048, "height": 1365, "capture_time": 1772208453.0, "translation": [375167.4690858952, 6169455.150310185, 65.68853294728706], "rotation": [3.101987489061973, -0.003930867640882753, 0.009010042234396626]}, "geometry": {"type": "Point", "coordinates": [-58.361514835891384, -34.60916494715196, 65.68853294728706]}}, {"type": "Feature", "properties": {"filename": "DJI_0368.JPG", "camera": "v2 dji fc3411 2048 1365 brown 0.6111", "focal": 0.5950301138801529, "width": 2048, "height": 1365, "capture_time": 1772208574.0, "translation": [375217.8255606941, 6169457.400548084, 64.24117014634231], "rotation": [3.10833276200718, -0.0009103990285708663, -0.022965806539827986]}, "geometry": {"type": "Point", "coordinates": [-58.360965417236635, -34.609150787481305, 64.24117014634231]}}, {"type": "Feature", "properties": {"filename": "DJI_0366.JPG", "camera": "v2 dji fc3411 2048 1365 brown 0.6111", "focal": 0.5950301138801529, "width": 2048, "height": 1365, "capture_time": 1772208554.0, "translation": [375192.5773850909, 6169440.934007649, 63.37000461945208], "rotation": [-0.051843839235124166, 3.134420639085311, 0.010744497692652104]}, "geometry": {"type": "Point", "coordinates": [-58.36124314691729, -34.609296169225914, 63.37000461945208]}}, {"type": "Feature", "properties": {"filename": "DJI_0369.JPG", "camera": "v2 dji fc3411 2048 1365 brown 0.6111", "focal": 0.5950301138801529, "width": 2048, "height": 1365, "capture_time": 1772208633.0, "translation": [375039.2996806404, 6169630.369737945, 65.15701211599645], "rotation": [3.1402853142405958, -0.014298422599002476, 0.005572549978093018]}, "geometry": {"type": "Point", "coordinates": [-58.362886578594775, -34.60756965614487, 65.15701211599645]}}, {"type": "Feature", "properties": {"filename": "DJI_0342.JPG", "camera": "v2 dji fc3411 2048 1365 brown 0.6111", "focal": 0.5950301138801529, "width": 2048, "height": 1365, "capture_time": 1772208429.0, "translation": [375141.6547183008, 6169484.499255371, 66.47370453942669], "rotation": [0.05661820197952814, -3.1358250563961536, 0.006485106541115854]}, "geometry": {"type": "Point", "coordinates": [-58.36179199504669, -34.60889721069787, 66.47370453942669]}}, {"type": "Feature", "properties": {"filename": "DJI_0346.JPG", "camera": "v2 dji fc3411 2048 1365 brown 0.6111", "focal": 0.5950301138801529, "width": 2048, "height": 1365, "capture_time": 1772208457.0, "translation": [375167.0338850099, 6169471.965839719, 66.52107896986962], "rotation": [3.0978460575522955, -0.0036911748597048704, -0.003448579015576591]}, "geometry": {"type": "Point", "coordinates": [-58.361517106136475, -34.60901329431608, 66.52107896986962]}}, {"type": "Feature", "properties": {"filename": "DJI_0353.JPG", "camera": "v2 dji fc3411 2048 1365 brown 0.6111", "focal": 0.5950301138801529, "width": 2048, "height": 1365, "capture_time": 1772208481.0, "translation": [375165.3863098237, 6169588.145973803, 67.27904890047562], "rotation": [3.124005347351545, -0.021375896765224243, -0.01994314012946814]}, "geometry": {"type": "Point", "coordinates": [-58.36151797023316, -34.607965675404714, 67.27904890047562]}}, {"type": "Feature", "properties": {"filename": "DJI_0286.JPG", "camera": "v2 dji fc3411 2048 1365 brown 0.6111", "focal": 0.5950301138801529, "width": 2048, "height": 1365, "capture_time": 1772208198.0, "translation": [375064.7105847103, 6169535.105337092, 66.22470237043171], "rotation": [3.1150938158768247, -0.05168373948639756, 0.011220442960631299]}, "geometry": {"type": "Point", "coordinates": [-58.36262353663234, -34.60843160432695, 66.22470237043171]}}, {"type": "Feature", "properties": {"filename": "DJI_0328.JPG", "camera": "v2 dji fc3411 2048 1365 brown 0.6111", "focal": 0.5950301138801529, "width": 2048, "height": 1365, "capture_time": 1772208380.0, "translation": [375138.0061487112, 6169721.576741647, 64.3845967601983], "rotation": [0.02838011200632798, -3.1339851415322055, 0.044366436670355745]}, "geometry": {"type": "Point", "coordinates": [-58.361796875997335, -34.60675940186136, 64.3845967601983]}}, {"type": "Feature", "properties": {"filename": "DJI_0332.JPG", "camera": "v2 dji fc3411 2048 1365 brown 0.6111", "focal": 0.5950301138801529, "width": 2048, "height": 1365, "capture_time": 1772208395.0, "translation": [375138.80928820826, 6169652.703788144, 66.0222827990122], "rotation": [0.0465725075583712, -3.1347745014416675, 0.061926641391252826]}, "geometry": {"type": "Point", "coordinates": [-58.36179825796057, -34.60738042167199, 66.0222827990122]}}, {"type": "Feature", "properties": {"filename": "DJI_0298.JPG", "camera": "v2 dji fc3411 2048 1365 brown 0.6111", "focal": 0.5950301138801529, "width": 2048, "height": 1365, "capture_time": 1772208255.0, "translation": [375088.05204238143, 6169705.347634311, 64.08747402202258], "rotation": [0.029354646932793174, -3.1188142331897564, 0.06126864843709813]}, "geometry": {"type": "Point", "coordinates": [-58.362343950305785, -34.606899633210986, 64.08747402202258]}}, {"type": "Feature", "properties": {"filename": "DJI_0327.JPG", "camera": "v2 dji fc3411 2048 1365 brown 0.6111", "focal": 0.5950301138801529, "width": 2048, "height": 1365, "capture_time": 1772208368.0, "translation": [375112.6517787204, 6169725.597521954, 64.29545044846506], "rotation": [-3.131522508191768, 0.003830840776606944, 0.0015911608101415332]}, "geometry": {"type": "Point", "coordinates": [-58.36207274022655, -34.60672006617912, 64.29545044846506]}}, {"type": "Feature", "properties": {"filename": "DJI_0300.JPG", "camera": "v2 dji fc3411 2048 1365 brown 0.6111", "focal": 0.5950301138801529, "width": 2048, "height": 1365, "capture_time": 1772208261.0, "translation": [375088.6129701041, 6169672.8931058245, 64.55658872021725], "rotation": [0.040107562003953316, -3.121263233308573, 0.073148091107791]}, "geometry": {"type": "Point", "coordinates": [-58.36234261382954, -34.60719229428032, 64.55658872021725]}}, {"type": "Feature", "properties": {"filename": "DJI_0308.JPG", "camera": "v2 dji fc3411 2048 1365 brown 0.6111", "focal": 0.5950301138801529, "width": 2048, "height": 1365, "capture_time": 1772208289.0, "translation": [375090.53754257644, 6169538.612085562, 65.41354652288872], "rotation": [0.051165668298234906, -3.123476306630412, 0.023563407118366943]}, "geometry": {"type": "Point", "coordinates": [-58.362341405342704, -34.60840313474094, 65.41354652288872]}}, {"type": "Feature", "properties": {"filename": "DJI_0289.JPG", "camera": "v2 dji fc3411 2048 1365 brown 0.6111", "focal": 0.5950301138801529, "width": 2048, "height": 1365, "capture_time": 1772208209.0, "translation": [375064.1380134375, 6169585.073764271, 66.3878500531047], "rotation": [3.125223692376155, -0.04716178639436547, 0.008917761690719356]}, "geometry": {"type": "Point", "coordinates": [-58.362622418971526, -34.607981045967406, 66.3878500531047]}}, {"type": "Feature", "properties": {"filename": "DJI_0371.JPG", "camera": "v2 dji fc3411 2048 1365 brown 0.6111", "focal": 0.5950301138801529, "width": 2048, "height": 1365, "capture_time": 1772208641.0, "translation": [375039.3669565449, 6169664.854584885, 65.38328794652182], "rotation": [-3.1409713746922954, 0.010590084936880354, -0.019168151897155462]}, "geometry": {"type": "Point", "coordinates": [-58.36288076420777, -34.60725876739292, 65.38328794652182]}}, {"type": "Feature", "properties": {"filename": "DJI_0312.JPG", "camera": "v2 dji fc3411 2048 1365 brown 0.6111", "focal": 0.5950301138801529, "width": 2048, "height": 1365, "capture_time": 1772208314.0, "translation": [375116.0638087153, 6169473.750674863, 64.59779200073804], "rotation": [3.102701035921658, 0.01775411083477359, 0.03703043938067551]}, "geometry": {"type": "Point", "coordinates": [-58.36207262040713, -34.608990998749256, 64.59779200073804]}}, {"type": "Feature", "properties": {"filename": "DJI_0363.JPG", "camera": "v2 dji fc3411 2048 1365 brown 0.6111", "focal": 0.5950301138801529, "width": 2048, "height": 1365, "capture_time": 1772208544.0, "translation": [375192.27201724774, 6169490.594897252, 64.44208453714356], "rotation": [-0.04244298926562372, 3.1337702437298294, -0.014204049624664546]}, "geometry": {"type": "Point", "coordinates": [-58.36123916822412, -34.60884841584881, 64.44208453714356]}}, {"type": "Feature", "properties": {"filename": "DJI_0344.JPG", "camera": "v2 dji fc3411 2048 1365 brown 0.6111", "focal": 0.5950301138801529, "width": 2048, "height": 1365, "capture_time": 1772208449.0, "translation": [375167.5783299853, 6169436.212753456, 64.68678985869127], "rotation": [3.1007536483399107, 0.009803015549569978, 0.02561818080096421]}, "geometry": {"type": "Point", "coordinates": [-58.361516432247555, -34.60933569138219, 64.68678985869127]}}, {"type": "Feature", "properties": {"filename": "DJI_0311.JPG", "camera": "v2 dji fc3411 2048 1365 brown 0.6111", "focal": 0.5950301138801529, "width": 2048, "height": 1365, "capture_time": 1772208300.0, "translation": [375091.0846564345, 6169488.912123786, 64.58016732237556], "rotation": [0.053325948732087784, -3.1225691457197624, 0.00014981181355103995]}, "geometry": {"type": "Point", "coordinates": [-58.36234275961524, -34.608851269667696, 64.58016732237556]}}, {"type": "Feature", "properties": {"filename": "DJI_0288.JPG", "camera": "v2 dji fc3411 2048 1365 brown 0.6111", "focal": 0.5950301138801529, "width": 2048, "height": 1365, "capture_time": 1772208205.0, "translation": [375064.43163754395, 6169568.18234549, 66.37818795761481], "rotation": [3.122675439845768, -0.04831745967887317, 0.008098828783970662]}, "geometry": {"type": "Point", "coordinates": [-58.36262170561508, -34.60813336573389, 66.37818795761481]}}, {"type": "Feature", "properties": {"filename": "DJI_0367.JPG", "camera": "v2 dji fc3411 2048 1365 brown 0.6111", "focal": 0.5950301138801529, "width": 2048, "height": 1365, "capture_time": 1772208570.0, "translation": [375218.13444006024, 6169438.932528971, 63.633686124275506], "rotation": [3.107378060812582, 0.011220142362693447, -0.0054968832758291244]}, "geometry": {"type": "Point", "coordinates": [-58.3609647665502, -34.60931732292981, 63.633686124275506]}}, {"type": "Feature", "properties": {"filename": "DJI_0317.JPG", "camera": "v2 dji fc3411 2048 1365 brown 0.6111", "focal": 0.5950301138801529, "width": 2048, "height": 1365, "capture_time": 1772208333.0, "translation": [375114.7948632274, 6169559.616870704, 66.95890129124487], "rotation": [3.1216634627394977, 0.005616017877953291, 0.00013210325314375222]}, "geometry": {"type": "Point", "coordinates": [-58.362073812767456, -34.60821672041879, 66.95890129124487]}}, {"type": "Feature", "properties": {"filename": "DJI_0324.JPG", "camera": "v2 dji fc3411 2048 1365 brown 0.6111", "focal": 0.5950301138801529, "width": 2048, "height": 1365, "capture_time": 1772208356.0, "translation": [375113.28924361325, 6169676.436762823, 65.85417056798347], "rotation": [-3.1399696494021145, 0.002551022373357536, 0.004300543290461993]}, "geometry": {"type": "Point", "coordinates": [-58.36207302815611, -34.60716335109909, 65.85417056798347]}}, {"type": "Feature", "properties": {"filename": "DJI_0343.JPG", "camera": "v2 dji fc3411 2048 1365 brown 0.6111", "focal": 0.5950301138801529, "width": 2048, "height": 1365, "capture_time": 1772208433.0, "translation": [375141.7373811163, 6169467.753777425, 65.97394426835413], "rotation": [0.056002753575797065, -3.1343052231613218, -0.003131524717908565]}, "geometry": {"type": "Point", "coordinates": [-58.36179355905692, -34.609048189068616, 65.97394426835413]}}, {"type": "Feature", "properties": {"filename": "DJI_0331.JPG", "camera": "v2 dji fc3411 2048 1365 brown 0.6111", "focal": 0.5950301138801529, "width": 2048, "height": 1365, "capture_time": 1772208392.0, "translation": [375138.54643242847, 6169669.180810414, 65.86791412108545], "rotation": [0.042972905235146394, -3.13358595173794, 0.06687011496208824]}, "geometry": {"type": "Point", "coordinates": [-58.36179869837824, -34.60723184158119, 65.86791412108545]}}, {"type": "Feature", "properties": {"filename": "DJI_0356.JPG", "camera": "v2 dji fc3411 2048 1365 brown 0.6111", "focal": 0.5950301138801529, "width": 2048, "height": 1365, "capture_time": 1772208491.0, "translation": [375164.915415519, 6169637.919702624, 66.95918554910035], "rotation": [3.133583692060124, -0.019685326967175443, -0.017660091355880647]}, "geometry": {"type": "Point", "coordinates": [-58.36151577863175, -34.607516884531925, 66.95918554910035]}}, {"type": "Feature", "properties": {"filename": "DJI_0334.JPG", "camera": "v2 dji fc3411 2048 1365 brown 0.6111", "focal": 0.5950301138801529, "width": 2048, "height": 1365, "capture_time": 1772208402.0, "translation": [375139.2754479045, 6169618.722609647, 66.3968490998963], "rotation": [0.05185421257287179, -3.1319704819088408, 0.04950348206762206]}, "geometry": {"type": "Point", "coordinates": [-58.36179817770411, -34.60768683468879, 66.3968490998963]}}, {"type": "Feature", "properties": {"filename": "DJI_0303.JPG", "camera": "v2 dji fc3411 2048 1365 brown 0.6111", "focal": 0.5950301138801529, "width": 2048, "height": 1365, "capture_time": 1772208272.0, "translation": [375089.18540696474, 6169621.765964726, 65.19385322393119], "rotation": [0.04684584759472006, -3.1205622900255268, 0.05450449727517788]}, "geometry": {"type": "Point", "coordinates": [-58.362343901939674, -34.60765329906592, 65.19385322393119]}}, {"type": "Feature", "properties": {"filename": "DJI_0357.JPG", "camera": "v2 dji fc3411 2048 1365 brown 0.6111", "focal": 0.5950301138801529, "width": 2048, "height": 1365, "capture_time": 1772208494.0, "translation": [375164.7879742388, 6169654.84774699, 66.76665033112216], "rotation": [3.13516297375602, -0.017812897474434278, -0.015445431740108295]}, "geometry": {"type": "Point", "coordinates": [-58.3615146766315, -34.607364254736595, 66.76665033112216]}}, {"type": "Feature", "properties": {"filename": "DJI_0306.JPG", "camera": "v2 dji fc3411 2048 1365 brown 0.6111", "focal": 0.5950301138801529, "width": 2048, "height": 1365, "capture_time": 1772208282.0, "translation": [375090.12687131437, 6169572.675533737, 65.46750627045644], "rotation": [0.050596009075666755, -3.1243470650452556, 0.03196288255848612]}, "geometry": {"type": "Point", "coordinates": [-58.36234086635768, -34.60809598686326, 65.46750627045644]}}, {"type": "Feature", "properties": {"filename": "DJI_0318.JPG", "camera": "v2 dji fc3411 2048 1365 brown 0.6111", "focal": 0.5950301138801529, "width": 2048, "height": 1365, "capture_time": 1772208336.0, "translation": [375114.4877464558, 6169576.408397598, 66.88599871409406], "rotation": [3.1266278224880604, 0.0036895903501624953, -0.0013742889279807222]}, "geometry": {"type": "Point", "coordinates": [-58.362074688951786, -34.60806529956329, 66.88599871409406]}}, {"type": "Feature", "properties": {"filename": "DJI_0336.JPG", "camera": "v2 dji fc3411 2048 1365 brown 0.6111", "focal": 0.5950301138801529, "width": 2048, "height": 1365, "capture_time": 1772208408.0, "translation": [375139.8010432396, 6169585.332313642, 66.5284791579703], "rotation": [0.05324156118405699, -3.1282964457652653, 0.04031412897822582]}, "geometry": {"type": "Point", "coordinates": [-58.361797362418066, -34.60798792784277, 66.5284791579703]}}, {"type": "Feature", "properties": {"filename": "DJI_0351.JPG", "camera": "v2 dji fc3411 2048 1365 brown 0.6111", "focal": 0.5950301138801529, "width": 2048, "height": 1365, "capture_time": 1772208474.0, "translation": [375165.9249316968, 6169555.100672898, 66.93770021074877], "rotation": [3.122127324476656, -0.01551950302778217, -0.02325262644916067]}, "geometry": {"type": "Point", "coordinates": [-58.36151696114661, -34.60826365985988, 66.93770021074877]}}, {"type": "Feature", "properties": {"filename": "DJI_0316.JPG", "camera": "v2 dji fc3411 2048 1365 brown 0.6111", "focal": 0.5950301138801529, "width": 2048, "height": 1365, "capture_time": 1772208329.0, "translation": [375115.1407618324, 6169542.616089518, 66.86391617101549], "rotation": [3.114579317158063, 0.008974412397308036, 0.0018634027148219864]}, "geometry": {"type": "Point", "coordinates": [-58.36207254452931, -34.60837003251758, 66.86391617101549]}}, {"type": "Feature", "properties": {"filename": "DJI_0305.JPG", "camera": "v2 dji fc3411 2048 1365 brown 0.6111", "focal": 0.5950301138801529, "width": 2048, "height": 1365, "capture_time": 1772208279.0, "translation": [375089.90934030164, 6169588.915635854, 65.36949446312794], "rotation": [0.049756582384441715, -3.1241758945755613, 0.0381803399972695]}, "geometry": {"type": "Point", "coordinates": [-58.362340846447324, -34.607949548275236, 65.36949446312794]}}, {"type": "Feature", "properties": {"filename": "DJI_0325.JPG", "camera": "v2 dji fc3411 2048 1365 brown 0.6111", "focal": 0.5950301138801529, "width": 2048, "height": 1365, "capture_time": 1772208360.0, "translation": [375113.0940579363, 6169693.0296126725, 65.3626885872958], "rotation": [-3.1386070336658247, 0.004747226333742769, 0.004971234434302448]}, "geometry": {"type": "Point", "coordinates": [-58.36207271318498, -34.6070137350123, 65.3626885872958]}}, {"type": "Feature", "properties": {"filename": "DJI_0302.JPG", "camera": "v2 dji fc3411 2048 1365 brown 0.6111", "focal": 0.5950301138801529, "width": 2048, "height": 1365, "capture_time": 1772208268.0, "translation": [375088.94239746546, 6169639.199523948, 65.04785039704245], "rotation": [0.04571692446385745, -3.1196053829869883, 0.0622334996452499]}, "geometry": {"type": "Point", "coordinates": [-58.36234398409392, -34.60749609779151, 65.04785039704245]}}, {"type": "Feature", "properties": {"filename": "DJI_0320.JPG", "camera": "v2 dji fc3411 2048 1365 brown 0.6111", "focal": 0.5950301138801529, "width": 2048, "height": 1365, "capture_time": 1772208343.0, "translation": [375114.1401798829, 6169609.640736895, 66.54068618043587], "rotation": [3.1322428943927454, 0.00300373113846276, -0.005447241041603899]}, "geometry": {"type": "Point", "coordinates": [-58.36207358529219, -34.6077656521631, 66.54068618043587]}}, {"type": "Feature", "properties": {"filename": "DJI_0365.JPG", "camera": "v2 dji fc3411 2048 1365 brown 0.6111", "focal": 0.5950301138801529, "width": 2048, "height": 1365, "capture_time": 1772208551.0, "translation": [375192.3583309393, 6169457.470074503, 63.65361489073044], "rotation": [-0.0471649707693212, 3.134265758108665, 0.0011616220913431724]}, "geometry": {"type": "Point", "coordinates": [-58.36124310191412, -34.60914706217412, 63.65361489073044]}}, {"type": "Feature", "properties": {"filename": "DJI_0355.JPG", "camera": "v2 dji fc3411 2048 1365 brown 0.6111", "focal": 0.5950301138801529, "width": 2048, "height": 1365, "capture_time": 1772208487.0, "translation": [375164.8691971283, 6169621.205690041, 67.16596149827939], "rotation": [3.1310218736132596, -0.022126281277431527, -0.01920100626686232]}, "geometry": {"type": "Point", "coordinates": [-58.361518742695296, -34.607667563592166, 67.16596149827939]}}, {"type": "Feature", "properties": {"filename": "DJI_0354.JPG", "camera": "v2 dji fc3411 2048 1365 brown 0.6111", "focal": 0.5950301138801529, "width": 2048, "height": 1365, "capture_time": 1772208484.0, "translation": [375165.0335805388, 6169604.688477716, 67.23128809448137], "rotation": [3.128294409400685, -0.022110224320473566, -0.01857214948848307]}, "geometry": {"type": "Point", "coordinates": [-58.361519381445, -34.607816494031674, 67.23128809448137]}}, {"type": "Feature", "properties": {"filename": "DJI_0338.JPG", "camera": "v2 dji fc3411 2048 1365 brown 0.6111", "focal": 0.5950301138801529, "width": 2048, "height": 1365, "capture_time": 1772208415.0, "translation": [375140.5865549681, 6169551.712222121, 66.57320277084787], "rotation": [0.05437922073337912, -3.13268107293136, 0.030013091932048284]}, "geometry": {"type": "Point", "coordinates": [-58.3617937468938, -34.60829112433494, 66.57320277084787]}}]}